{
  "type": "FeatureCollection",
  "features": [
    {
      "type": "Feature",
      "properties": {
        "norad_id": 66910,
        "name": "1998-067XW",
        "group": "last-30-days",
        "lat": 49.42295375418439,
        "lon": -85.83861648922033,
        "alt_km": 406.33216691123107,
        "timestamp": "2025-12-08T19:31:47.637813+00:00",
        "meta_object_name": "1998-067XW",
        "meta_object_id": "1998-067XW",
        "meta_epoch": "2025-12-07T21:26:00.150720",
        "meta_mean_motion": 15.50969965,
        "meta_eccentricity": 0.00060372,
        "meta_inclination": 51.6295,
        "meta_ra_of_asc_node": 166.4259,
        "meta_arg_of_pericenter": 184.7367,
        "meta_mean_anomaly": 175.3566,
        "meta_ephemeris_type": 0,
        "meta_classification_type": "U",
        "meta_norad_cat_id": 66910,
        "meta_element_set_no": 999,
        "meta_rev_at_epoch": 86,
        "meta_bstar": 0.0010283643,
        "meta_mean_motion_dot": 0.00060787,
        "meta_mean_motion_ddot": 0,
        "tle_line1": "1 66910U 98067XW  25341.89305730  .00060787  00000+0  10284-2 0  9996",
        "tle_line2": "2 66910  51.6295 166.4259 0006037 184.7367 175.3566 15.50969965   869"
      },
      "geometry": {
        "type": "Point",
        "coordinates": [
          -85.83861648922033,
          49.42295375418439
        ]
      }
    },
    {
      "type": "Feature",
      "properties": {
        "norad_id": 66911,
        "name": "1998-067XX",
        "group": "last-30-days",
        "lat": 49.007048179058444,
        "lon": -83.88872578473865,
        "alt_km": 405.9515971684923,
        "timestamp": "2025-12-08T19:31:47.637824+00:00",
        "meta_object_name": "1998-067XX",
        "meta_object_id": "1998-067XX",
        "meta_epoch": "2025-12-07T22:58:32.522304",
        "meta_mean_motion": 15.51093228,
        "meta_eccentricity": 0.00059306,
        "meta_inclination": 51.6292,
        "meta_ra_of_asc_node": 166.1051,
        "meta_arg_of_pericenter": 185.6814,
        "meta_mean_anomaly": 174.4109,
        "meta_ephemeris_type": 0,
        "meta_classification_type": "U",
        "meta_norad_cat_id": 66911,
        "meta_element_set_no": 999,
        "meta_rev_at_epoch": 86,
        "meta_bstar": 0.0012532777,
        "meta_mean_motion_dot": 0.00074641,
        "meta_mean_motion_ddot": 0,
        "tle_line1": "1 66911U 98067XX  25341.95732086  .00074641  00000+0  12533-2 0  9995",
        "tle_line2": "2 66911  51.6292 166.1051 0005930 185.6814 174.4109 15.51093228   866"
      },
      "geometry": {
        "type": "Point",
        "coordinates": [
          -83.88872578473865,
          49.007048179058444
        ]
      }
    },
    {
      "type": "Feature",
      "properties": {
        "norad_id": 66912,
        "name": "1998-067XY",
        "group": "last-30-days",
        "lat": 51.37393485867428,
        "lon": -100.68671401809539,
        "alt_km": 408.9571504193773,
        "timestamp": "2025-12-08T19:31:47.637833+00:00",
        "meta_object_name": "1998-067XY",
        "meta_object_id": "1998-067XY",
        "meta_epoch": "2025-12-07T23:00:53.074368",
        "meta_mean_motion": 15.50498763,
        "meta_eccentricity": 0.00051226,
        "meta_inclination": 51.6298,
        "meta_ra_of_asc_node": 166.116,
        "meta_arg_of_pericenter": 198.5004,
        "meta_mean_anomaly": 161.58,
        "meta_ephemeris_type": 0,
        "meta_classification_type": "U",
        "meta_norad_cat_id": 66912,
        "meta_element_set_no": 999,
        "meta_rev_at_epoch": 86,
        "meta_bstar": 0.00089233743,
        "meta_mean_motion_dot": 0.00051735,
        "meta_mean_motion_ddot": 0,
        "tle_line1": "1 66912U 98067XY  25341.95894762  .00051735  00000+0  89234-3 0  9998",
        "tle_line2": "2 66912  51.6298 166.1160 0005122 198.5004 161.5800 15.50498763   868"
      },
      "geometry": {
        "type": "Point",
        "coordinates": [
          -100.68671401809539,
          51.37393485867428
        ]
      }
    },
    {
      "type": "Feature",
      "properties": {
        "norad_id": 66913,
        "name": "2025-284A",
        "group": "last-30-days",
        "lat": -31.332260723017193,
        "lon": -39.349213819512954,
        "alt_km": 504.13708841432344,
        "timestamp": "2025-12-08T19:31:47.637843+00:00",
        "meta_object_name": "2025-284A",
        "meta_object_id": "2025-284A",
        "meta_epoch": "2025-12-05T19:30:25.528608",
        "meta_mean_motion": 15.20033669,
        "meta_eccentricity": 0.00128266,
        "meta_inclination": 80.4023,
        "meta_ra_of_asc_node": 138.5488,
        "meta_arg_of_pericenter": 252.3263,
        "meta_mean_anomaly": 107.6565,
        "meta_ephemeris_type": 0,
        "meta_classification_type": "U",
        "meta_norad_cat_id": 66913,
        "meta_element_set_no": 999,
        "meta_rev_at_epoch": 7,
        "meta_bstar": 0.00014555981,
        "meta_mean_motion_dot": 3.163e-05,
        "meta_mean_motion_ddot": 0,
        "tle_line1": "1 66913U 25284A   25339.81279547  .00003163  00000+0  14556-3 0  9997",
        "tle_line2": "2 66913  80.4023 138.5488 0012826 252.3263 107.6565 15.20033669    75"
      },
      "geometry": {
        "type": "Point",
        "coordinates": [
          -39.349213819512954,
          -31.332260723017193
        ]
      }
    },
    {
      "type": "Feature",
      "properties": {
        "norad_id": 66915,
        "name": "HULIANWANG DIGUI 14A",
        "group": "last-30-days",
        "lat": 42.27093509180971,
        "lon": -96.53108634616012,
        "alt_km": 868.2793305387513,
        "timestamp": "2025-12-08T19:31:47.637853+00:00",
        "meta_object_name": "HULIANWANG DIGUI 14A",
        "meta_object_id": "2025-285A",
        "meta_epoch": "2025-12-06T08:58:45.410016",
        "meta_mean_motion": 14.06225102,
        "meta_eccentricity": 0.00087698,
        "meta_inclination": 49.9887,
        "meta_ra_of_asc_node": 143.2276,
        "meta_arg_of_pericenter": 217.1051,
        "meta_mean_anomaly": 142.9249,
        "meta_ephemeris_type": 0,
        "meta_classification_type": "U",
        "meta_norad_cat_id": 66915,
        "meta_element_set_no": 999,
        "meta_rev_at_epoch": 1,
        "meta_bstar": 1.8511052e-05,
        "meta_mean_motion_dot": -1.22e-06,
        "meta_mean_motion_ddot": 0,
        "tle_line1": "1 66915U 25285A   25340.37413669 -.00000122  00000+0  18511-4 0  9997",
        "tle_line2": "2 66915  49.9887 143.2276 0008769 217.1051 142.9249 14.06225102    11"
      },
      "geometry": {
        "type": "Point",
        "coordinates": [
          -96.53108634616012,
          42.27093509180971
        ]
      }
    },
    {
      "type": "Feature",
      "properties": {
        "norad_id": 66916,
        "name": "HULIANWANG DIGUI 14B",
        "group": "last-30-days",
        "lat": 43.451498158664975,
        "lon": -99.35730638578961,
        "alt_km": 872.5015239028489,
        "timestamp": "2025-12-08T19:31:47.637862+00:00",
        "meta_object_name": "HULIANWANG DIGUI 14B",
        "meta_object_id": "2025-285B",
        "meta_epoch": "2025-12-06T12:23:28.538592",
        "meta_mean_motion": 14.0595389,
        "meta_eccentricity": 0.0008093,
        "meta_inclination": 50.0119,
        "meta_ra_of_asc_node": 142.6984,
        "meta_arg_of_pericenter": 262.9615,
        "meta_mean_anomaly": 97.037,
        "meta_ephemeris_type": 0,
        "meta_classification_type": "U",
        "meta_norad_cat_id": 66916,
        "meta_element_set_no": 999,
        "meta_rev_at_epoch": 3,
        "meta_bstar": 1.7671e-05,
        "meta_mean_motion_dot": -1.23e-06,
        "meta_mean_motion_ddot": 0,
        "tle_line1": "1 66916U 25285B   25340.51630253 -.00000123  00000+0  17671-4 0  9991",
        "tle_line2": "2 66916  50.0119 142.6984 0008093 262.9615  97.0370 14.05953890    34"
      },
      "geometry": {
        "type": "Point",
        "coordinates": [
          -99.35730638578961,
          43.451498158664975
        ]
      }
    },
    {
      "type": "Feature",
      "properties": {
        "norad_id": 66917,
        "name": "HULIANWANG DIGUI 14C",
        "group": "last-30-days",
        "lat": 43.69793097517649,
        "lon": -100.05245013215267,
        "alt_km": 873.4431630302952,
        "timestamp": "2025-12-08T19:31:47.637871+00:00",
        "meta_object_name": "HULIANWANG DIGUI 14C",
        "meta_object_id": "2025-285C",
        "meta_epoch": "2025-12-08T08:44:38.755680",
        "meta_mean_motion": 14.05578781,
        "meta_eccentricity": 0.0007507,
        "meta_inclination": 50.0019,
        "meta_ra_of_asc_node": 135.1297,
        "meta_arg_of_pericenter": 270.467,
        "meta_mean_anomaly": 89.5375,
        "meta_ephemeris_type": 0,
        "meta_classification_type": "U",
        "meta_norad_cat_id": 66917,
        "meta_element_set_no": 999,
        "meta_rev_at_epoch": 29,
        "meta_bstar": -6.4208e-06,
        "meta_mean_motion_dot": -1.63e-06,
        "meta_mean_motion_ddot": 0,
        "tle_line1": "1 66917U 25285C   25342.36433745 -.00000163  00000+0 -64208-5 0  9998",
        "tle_line2": "2 66917  50.0019 135.1297 0007507 270.4670  89.5375 14.05578781   293"
      },
      "geometry": {
        "type": "Point",
        "coordinates": [
          -100.05245013215267,
          43.69793097517649
        ]
      }
    }
  ]
}